SatCatId,ObjectName,LaunchYear,OrbitalPeriod,LaunchMass,StatusCode,Inclination,Status,UcsData,OrbitClassEstimated,LaunchSiteCountry,Owner,UseType,Purpose,LaunchVehicleClass,TLE1,TLE2,MeanMotion,Eccentricity,OrbitClass
20217,HIMAWARI-4 (GMS-4),1989,1478.25,-1.0,-,15.23,Inactive,0,GSO,Japan,Japan,Unknown,Unknown,JAXA H,1 20217U 89070A   24007.27675953 -.00000142  00000+0  00000+0 0  9999,2 20217  15.2329 353.1641 0047541 125.6880  56.2382  0.97412423123857,0.97412423,0.0047541,GSO
12032,COSMOS 1217,1980,716.6,-1.0,UNK,69.97,Inactive,0,MEO,Russia,Russia/USSR,Unknown,Unknown,Molniya,1 12032U 80085A   24006.98568875 -.00000409  00000+0  00000+0 0  9999,2 12032  69.9698 221.2886 5643532 272.7778  27.5285  2.00946284264280,2.00946284,0.5643532,MEO
28417,GSAT-3 (EDUSAT),2004,1450.58,-1.0,-,9.61,Inactive,0,GSO,India,India,Unknown,Unknown,Unknown,1 28417U 04036A   24007.36785568 -.00000176  00000+0  00000+0 0  9999,2 28417   9.6101  48.3563 0003223 139.7688 222.9478  0.99270631 70268,0.99270631,0.0003223,GSO
20232,COSMOS 2038,1989,113.8,-1.0,UNK,82.57,Inactive,0,LEO,Russia,Russia/USSR,Military,Unknown,Tsiklon,1 20232U 89074A   24007.56427788  .00000030  00000+0  10365-3 0  9997,2 20232  82.5731  41.9325 0010302 292.8740 185.5736 12.65391276558699,12.65391276,0.0010302,LEO
20233,COSMOS 2039,1989,113.72,-1.0,UNK,82.58,Inactive,0,LEO,Russia,Russia/USSR,Military,Unknown,Tsiklon,1 20233U 89074B   24007.56434545  .00000036  00000+0  13627-3 0  9997,2 20233  82.5798  36.9427 0013790 229.4540 246.7078 12.66241824585758,12.66241824,0.001379,LEO
20234,COSMOS 2040,1989,114.05,-1.0,UNK,82.59,Inactive,0,LEO,Russia,Russia/USSR,Military,Unknown,Tsiklon,1 20234U 89074C   24007.34508628  .00000006  00000+0 -26714-4 0  9998,2 20234  82.5857  96.2220 0005235 174.3658 251.9660 12.62592361581086,12.62592361,0.0005235,LEO
20235,COSMOS 2041,1989,113.85,-1.0,UNK,82.58,Inactive,0,LEO,Russia,Russia/USSR,Military,Unknown,Tsiklon,1 20235U 89074D   24007.58435604  .00000018  00000+0  42224-4 0  9994,2 20235  82.5826  60.8179 0007766 331.5479 146.7054 12.64809061583790,12.64809061,0.0007766,LEO
20236,COSMOS 2042,1989,113.91,-1.0,UNK,82.58,Inactive,0,LEO,Russia,Russia/USSR,Military,Unknown,Tsiklon,1 20236U 89074E   24007.62152223  .00000018  00000+0  41882-4 0  9992,2 20236  82.5814  68.9440 0004962  11.3180 108.2745 12.64194289699017,12.64194289,0.0004962,LEO
20237,COSMOS 2043,1989,113.97,-1.0,UNK,82.58,Inactive,0,LEO,Russia,Russia/USSR,Military,Unknown,Tsiklon,1 20237U 89074F   24007.56092104  .00000022  00000+0  63727-4 0  9994,2 20237  82.5758  73.4987 0004772  90.0712  27.8209 12.63507677582296,12.63507677,0.0004772,LEO
12046,OPS 6394 (FLTSATCOM 4),1980,1455.21,-1.0,-,9.91,Inactive,0,GSO,USA,USA,Unknown,Unknown,Unknown,1 12046U 80087A   24007.13409858 -.00000235  00000+0  00000+0 0  9996,2 12046   9.9071 311.1920 0001387 128.4286 231.6806  0.98954180121338,0.9895418,0.0001387,GSO
12065,SBS 1,1980,1442.57,-1.0,UNK,11.54,Inactive,0,GSO,USA,USA,Unknown,Unknown,Delta,1 12065U 80091A   24007.53939425  .00000123  00000+0  00000+0 0  9999,2 12065  11.5355 324.1637 0007297 172.9429  13.0792  0.99822280 37575,0.9982228,0.0007297,GSO
28451,FENGYUN 2C,2004,1468.15,-1.0,-,10.99,Inactive,0,GSO,PRC,China,Unknown,Unknown,Unknown,1 28451U 04042A   24007.55436218 -.00000050  00000+0  00000+0 0  9991,2 28451  10.9950  37.2661 0003725   3.5460 190.3644  0.98082361 32421,0.98082361,0.0003725,GSO
20261,INTERCOSMOS 24,1989,114.51,-1.0,UNK,82.61,Inactive,0,LEO,Russia,Russia/USSR,Unknown,Unknown,Tsiklon,1 20261U 89080A   24007.44341321  .00001219  00000+0  36180-3 0  9994,2 20261  82.6052 259.0803 1197102 328.6686  24.8085 12.57508311567135,12.57508311,0.1197102,LEO
28454,RITE TARGET 1,2002,100.41,-1.0,UNK,98.64,Inactive,0,LEO,Japan,Japan,Unknown,Unknown,Unknown,1 28454U 02056F   24006.09097642  .00000952  00000+0  35634-3 0  9994,2 28454  98.6388 323.0573 0009799 336.9860  23.0884 14.34077631552495,14.34077631,0.0009799,LEO
20263,GORIZONT 19,1989,1437.28,-1.0,-,13.06,Inactive,0,GSO,Kazakhstan,Russia/USSR,Unknown,Unknown,Proton,1 20263U 89081A   24007.44158066 -.00000092  00000+0  00000+0 0  9996,2 20263  13.0559 339.7381 0004908 227.4227 135.8781  1.00189062 38404,1.00189062,0.0004908,GSO
44840,TIANYI-16 (TY-16),2019,92.1,9.0,UNK,97.51,Inactive,1,LEO,PRC,China,Commercial,Communications,Kuaizhou,1 44840U 19087C   24007.54675333  .00093506  00000+0  99352-3 0  9997,2 44840  97.5062 190.8589 0005755  23.2762 336.8756 15.63729897227933,15.63729897,0.0005755,LEO
28455,RITE TARGET 2,2002,100.4,-1.0,UNK,98.64,Inactive,0,LEO,Japan,Japan,Unknown,Unknown,Unknown,1 28455U 02056G   24003.11742354  .00001064  00000+0  39521-3 0  9996,2 28455  98.6425 320.8547 0010410 346.8425  13.2487 14.34206648546386,14.34206648,0.001041,LEO
44842,TIANQI-4A,2019,92.24,9.0,UNK,97.5,Inactive,1,LEO,PRC,China,Commercial,Technology Development,Kuaizhou,1 44842U 19087E   24007.53840671  .00085824  00000+0  10044-2 0  9991,2 44842  97.4972 188.9583 0006250  20.9586 339.1926 15.61256592227946,15.61256592,0.000625,LEO
44843,TIANQI-4B,2019,93.0,9.0,UNK,97.52,Inactive,1,LEO,PRC,China,Commercial,Technology Development,Kuaizhou,1 44843U 19087F   24007.56869772  .00030214  00000+0  56934-3 0  9990,2 44843  97.5216 186.9017 0009058  54.1068 306.1022 15.48419845227692,15.48419845,0.0009058,LEO
12078,COSMOS 1223,1980,717.37,-1.0,UNK,71.86,Inactive,0,MEO,Russia,Russia/USSR,Unknown,Unknown,Molniya,1 12078U 80095A   24005.45601903  .00000014  00000+0  00000+0 0  9992,2 12078  71.8619  78.3429 4964533 333.7534  34.7572  2.00734245315685,2.00734245,0.4964533,MEO
28463,EXPRESS-AM1,2004,1451.74,-1.0,-,9.75,Inactive,0,GSO,Kazakhstan,Russia/USSR,Unknown,Unknown,Unknown,1 28463U 04043A   24007.15588837  .00000030  00000+0  00000+0 0  9993,2 28463   9.7489  46.7903 0010707 223.9646 333.6767  0.99190684 69868,0.99190684,0.0010707,GSO
3890,NIMBUS 3,1969,107.26,-1.0,-,99.82,Inactive,0,LEO,USA,USA,Unknown,Unknown,Thorad,1 03890U 69037A   24007.59644097 -.00000003  00000+0  72132-4 0  9994,2 03890  99.8161 266.4436 0039310 342.4793  81.1841 13.42594884681135,13.42594884,0.003931,LEO
3891,SECOR 13 (EGRS 13),1969,107.23,-1.0,UNK,99.77,Inactive,0,LEO,USA,USA,Unknown,Unknown,Thorad,1 03891U 69037B   24007.61811918 -.00000019  00000+0  42046-4 0  9994,2 03891  99.7742 261.1174 0038788 276.1684 142.0069 13.42916104682088,13.42916104,0.0038788,LEO
12087,COSMOS 1225,1980,104.76,-1.0,UNK,82.95,Inactive,0,LEO,Russia,Russia/USSR,Unknown,Unknown,Kosmos,1 12087U 80097A   24007.63627858  .00000076  00000+0  63446-4 0  9999,2 12087  82.9452  55.2092 0056646  21.6669  89.9584 13.74610785160945,13.74610785,0.0056646,LEO
28472,AMC-16,2004,1452.96,-1.0,-,2.27,Inactive,0,GSO,USA,SES,Unknown,Unknown,Atlas,1 28472U 04048A   24007.58569929 -.00000246  00000+0  00000+0 0  9996,2 28472   2.2773  87.5176 0004836 183.9929 177.7442  0.99107247 69659,0.99107247,0.0004836,GSO
12089,INTELSAT 502,1980,1456.18,-1.0,-,12.54,Inactive,0,GSO,USA,INTELSAT,Unknown,Unknown,Atlas,1 12089U 80098A   24007.40581429  .00000029  00000+0  00000+0 0  9990,2 12089  12.5427 332.9126 0013666 300.6996 236.9497  0.98888709124907,0.98888709,0.0013666,GSO
12091,COSMOS 1226,1980,104.76,-1.0,UNK,82.94,Inactive,0,LEO,Russia,Russia/USSR,Unknown,Unknown,Kosmos,1 12091U 80099A   24007.34113753  .00000059  00000+0  46120-4 0  9999,2 12091  82.9420 304.3570 0034445  30.7925  85.8901 13.74591543160222,13.74591543,0.0034445,LEO
20281,MAGION 2,1989,114.24,-1.0,UNK,82.6,Inactive,0,LEO,Russia,Czech Republic,Unknown,Unknown,Tsiklon,1 20281U 89080B   24007.08335938  .00000878  00000+0  25973-3 0  9991,2 20281  82.6025 235.3385 1181928 234.2605 114.2896 12.60554492569558,12.60554492,0.1181928,LEO
12093,OPS 5805,1980,718.85,-1.0,UNK,63.99,Inactive,0,MEO,USA,USA,Unknown,Unknown,Titan,1 12093U 80100A   24006.93375633  .00001283  00000+0  00000+0 0  9997,2 12093  63.9932 288.3795 6841089 274.3049  16.7986  2.00323658 34256,2.00323658,0.6841089,MEO
28479,SHIYAN 2 (SY-2),2004,98.43,-1.0,UNK,98.08,Inactive,0,LEO,PRC,China,Unknown,Unknown,Unknown,1 28479U 04046A   24007.58824968  .00001168  00000+0  23700-3 0  9997,2 28479  98.0810  23.4430 0009747 185.2101 174.9001 14.62974086 19266,14.62974086,0.0009747,LEO
12107,COSMOS 1228,1980,114.41,-1.0,UNK,74.0,Inactive,0,LEO,Russia,Russia/USSR,Military,Unknown,Kosmos,1 12107U 80102A   24007.56443767 -.00000008  00000+0  53189-4 0  9995,2 12107  73.9967  54.8820 0046333 258.5807 213.9279 12.58624619977443,12.58624619,0.0046333,LEO
12108,COSMOS 1229,1980,114.64,-1.0,UNK,73.99,Inactive,0,LEO,Russia,Russia/USSR,Military,Unknown,Kosmos,1 12108U 80102B   24007.55920824 -.00000009  00000+0  42228-4 0  9992,2 12108  73.9929 153.0335 0031671  21.5595  49.8478 12.56099105973443,12.56099105,0.0031671,LEO
12109,COSMOS 1230,1980,114.48,-1.0,UNK,73.99,Inactive,0,LEO,Russia,Russia/USSR,Military,Unknown,Kosmos,1 12109U 80102C   24007.60626503 -.00000020  00000+0 -21668-4 0  9995,2 12109  73.9943  81.9450 0042244 300.0392 178.0120 12.57900489976310,12.57900489,0.0042244,LEO
12110,COSMOS 1231,1980,114.55,-1.0,UNK,73.99,Inactive,0,LEO,Russia,Russia/USSR,Military,Unknown,Kosmos,1 12110U 80102D   24007.47520153 -.00000022  00000+0 -31895-4 0  9991,2 12110  73.9941 113.1229 0037687 331.6494 111.3292 12.57113074975067,12.57113074,0.0037687,LEO
12111,COSMOS 1232,1980,114.62,-1.0,UNK,73.99,Inactive,0,LEO,Russia,Russia/USSR,Military,Unknown,Kosmos,1 12111U 80102E   24007.51095802 -.00000009  00000+0  43601-4 0  9997,2 12111  73.9933 144.9177 0032912   4.6927  61.9774 12.56307469973804,12.56307469,0.0032912,LEO
12112,COSMOS 1233,1980,114.69,-1.0,UNK,73.99,Inactive,0,LEO,Russia,Russia/USSR,Military,Unknown,Kosmos,1 12112U 80102F   24007.57393909  .00000008  00000+0  14970-3 0  9997,2 12112  73.9920 174.1813 0029006  32.9099  32.0263 12.55561078972614,12.55561078,0.0029006,LEO
